[{"OBJECT_NAME":"PACE","OBJECT_ID":"2024-025A","EPOCH":"2026-03-09T17:12:21.766176","MEAN_MOTION":14.65475036,"ECCENTRICITY":0.00016743,"INCLINATION":98.09,"RA_OF_ASC_NODE":1.5412,"ARG_OF_PERICENTER":171.2406,"MEAN_ANOMALY":188.8827,"EPHEMERIS_TYPE":0,"CLASSIFICATION_TYPE":"U","NORAD_CAT_ID":58928,"ELEMENT_SET_NO":999,"REV_AT_EPOCH":11136,"BSTAR":0.00014666329,"MEAN_MOTION_DOT":7.47e-6,"MEAN_MOTION_DDOT":0},{"OBJECT_NAME":"NOAA 16 DEB","OBJECT_ID":"2000-055BQ","EPOCH":"2026-03-09T22:09:39.117024","MEAN_MOTION":14.63838029,"ECCENTRICITY":0.00055373,"INCLINATION":98.9204,"RA_OF_ASC_NODE":238.2839,"ARG_OF_PERICENTER":291.615,"MEAN_ANOMALY":68.446,"EPHEMERIS_TYPE":0,"CLASSIFICATION_TYPE":"U","NORAD_CAT_ID":41133,"ELEMENT_SET_NO":999,"REV_AT_EPOCH":53193,"BSTAR":0.0045546408,"MEAN_MOTION_DOT":0.00023814,"MEAN_MOTION_DDOT":0}]
